start=new Date('2022-07-28T00:00:00.000Z').valueOf();
sats=[{"INCLINATION":"53.0548","APOAPSIS":"548.408","FILE":"3523323","COUNTRY_CODE":"US","CLASSIFICATION_TYPE":"U","OBJECT_TYPE":"PAYLOAD","PERIAPSIS":"546.045","OBJECT_NAME":"STARLINK-1222","LAUNCH_DATE":"2020-02-17","CENTER_NAME":"EARTH","TIME_SYSTEM":"UTC","MEAN_MOTION_DDOT":"0.0000000000000","TLE_LINE2":"2 45228  53.0548 177.0559 0001706  57.5939 302.5215 15.06395917136176","ECCENTRICITY":"0.00017060","EPHEMERIS_TYPE":"0","MEAN_ANOMALY":"302.5215","TLE_LINE1":"1 45228U 20012BC  22208.63665736  .00001198  00000-0  99304-4 0  9990","PERIOD":"95.592","ARG_OF_PERICENTER":"57.5939","RCS_SIZE":"LARGE","MEAN_MOTION":"15.06395917","RA_OF_ASC_NODE":"177.0559","SEMIMAJOR_AXIS":"6925.361","REF_FRAME":"TEME","ELEMENT_SET_NO":"999","NORAD_CAT_ID":"45228","GP_ID":"208997380","SITE":"AFETR","MEAN_MOTION_DOT":"0.00001198","OBJECT_ID":"2020-012BC","EPOCH":"2022-07-27T15:16:47.195904","REV_AT_EPOCH":"13617","BSTAR":"0.00009930400000","MEAN_ELEMENT_THEORY":"SGP4","DECAY_DATE":null},{"APOAPSIS":"548.546","INCLINATION":"53.0540","FILE":"3523109","CLASSIFICATION_TYPE":"U","COUNTRY_CODE":"US","OBJECT_TYPE":"PAYLOAD","PERIAPSIS":"545.878","OBJECT_NAME":"STARLINK-1226","CENTER_NAME":"EARTH","LAUNCH_DATE":"2020-02-17","ECCENTRICITY":"0.00019260","TLE_LINE2":"2 45229  53.0540 178.4269 0001926  60.6935 299.4246 15.06400577136130","TIME_SYSTEM":"UTC","MEAN_MOTION_DDOT":"0.0000000000000","MEAN_ANOMALY":"299.4246","EPHEMERIS_TYPE":"0","TLE_LINE1":"1 45229U 20012BD  22208.33441410 -.00000731  00000-0 -30174-4 0  9993","PERIOD":"95.592","MEAN_MOTION":"15.06400577","RCS_SIZE":"LARGE","ARG_OF_PERICENTER":"60.6935","ELEMENT_SET_NO":"999","REF_FRAME":"TEME","RA_OF_ASC_NODE":"178.4269","SEMIMAJOR_AXIS":"6925.347","GP_ID":"208966607","NORAD_CAT_ID":"45229","MEAN_MOTION_DOT":"-0.00000731","EPOCH":"2022-07-27T08:01:33.378240","OBJECT_ID":"2020-012BD","SITE":"AFETR","DECAY_DATE":null,"REV_AT_EPOCH":"13613","BSTAR":"-0.00003017400000","MEAN_ELEMENT_THEORY":"SGP4"},{"PERIOD":"95.592","TLE_LINE1":"1 45230U 20012BE  22208.52976189  .00001230  00000-0  10143-3 0  9998","RCS_SIZE":"LARGE","MEAN_MOTION":"15.06400271","ARG_OF_PERICENTER":"61.2297","GP_ID":"208965356","NORAD_CAT_ID":"45230","RA_OF_ASC_NODE":"177.5342","SEMIMAJOR_AXIS":"6925.348","REF_FRAME":"TEME","ELEMENT_SET_NO":"999","REV_AT_EPOCH":"13628","BSTAR":"0.00010143000000","MEAN_ELEMENT_THEORY":"SGP4","DECAY_DATE":null,"SITE":"AFETR","EPOCH":"2022-07-27T12:42:51.427296","MEAN_MOTION_DOT":"0.00001230","OBJECT_ID":"2020-012BE","FILE":"3523109","INCLINATION":"53.0546","APOAPSIS":"548.335","OBJECT_NAME":"STARLINK-1227","COUNTRY_CODE":"US","OBJECT_TYPE":"PAYLOAD","CLASSIFICATION_TYPE":"U","PERIAPSIS":"546.090","LAUNCH_DATE":"2020-02-17","CENTER_NAME":"EARTH","EPHEMERIS_TYPE":"0","MEAN_ANOMALY":"298.8855","TIME_SYSTEM":"UTC","MEAN_MOTION_DDOT":"0.0000000000000","TLE_LINE2":"2 45230  53.0546 177.5342 0001621  61.2297 298.8855 15.06400271136286","ECCENTRICITY":"0.00016210"},{"RA_OF_ASC_NODE":"340.4495","SEMIMAJOR_AXIS":"6717.828","REF_FRAME":"TEME","ELEMENT_SET_NO":"999","GP_ID":"208975027","NORAD_CAT_ID":"45231","SITE":"AFETR","MEAN_MOTION_DOT":"-0.00006979","OBJECT_ID":"2020-012BF","EPOCH":"2022-07-27T19:56:45.362112","REV_AT_EPOCH":"13807","MEAN_ELEMENT_THEORY":"SGP4","BSTAR":"-0.00003862900000","DECAY_DATE":null,"TLE_LINE1":"1 45231U 20012BF  22208.83108058 -.00006979  00000-0 -38629-4 0  9992","PERIOD":"91.328","ARG_OF_PERICENTER":"18.8397","RCS_SIZE":"LARGE","MEAN_MOTION":"15.76737516","LAUNCH_DATE":"2020-02-17","CENTER_NAME":"EARTH","TIME_SYSTEM":"UTC","MEAN_MOTION_DDOT":"0.0000000000000","TLE_LINE2":"2 45231  53.0215 340.4495 0002445  18.8397 341.2712 15.76737516138070","ECCENTRICITY":"0.00024450","EPHEMERIS_TYPE":"0","MEAN_ANOMALY":"341.2712","INCLINATION":"53.0215","APOAPSIS":"341.336","FILE":"3523224","CLASSIFICATION_TYPE":"U","COUNTRY_CODE":"US","OBJECT_TYPE":"PAYLOAD","PERIAPSIS":"338.051","OBJECT_NAME":"STARLINK-1229"},{"REV_AT_EPOCH":"13628","BSTAR":"0.00002864100000","MEAN_ELEMENT_THEORY":"SGP4","DECAY_DATE":null,"SITE":"AFETR","OBJECT_ID":"2020-012BG","MEAN_MOTION_DOT":"0.00000145","EPOCH":"2022-07-27T14:32:58.911360","GP_ID":"208996889","NORAD_CAT_ID":"45232","RA_OF_ASC_NODE":"177.1826","SEMIMAJOR_AXIS":"6925.389","ELEMENT_SET_NO":"999","REF_FRAME":"TEME","ARG_OF_PERICENTER":"59.7878","RCS_SIZE":"LARGE","MEAN_MOTION":"15.06386699","PERIOD":"95.593","TLE_LINE1":"1 45232U 20012BG  22208.60623740  .00000145  00000-0  28641-4 0  9998","EPHEMERIS_TYPE":"0","MEAN_ANOMALY":"300.3289","TIME_SYSTEM":"UTC","MEAN_MOTION_DDOT":"0.0000000000000","ECCENTRICITY":"0.00018090","TLE_LINE2":"2 45232  53.0548 177.1826 0001809  59.7878 300.3289 15.06386699136285","LAUNCH_DATE":"2020-02-17","CENTER_NAME":"EARTH","OBJECT_NAME":"STARLINK-1235","CLASSIFICATION_TYPE":"U","COUNTRY_CODE":"US","OBJECT_TYPE":"PAYLOAD","PERIAPSIS":"546.002","FILE":"3523323","INCLINATION":"53.0548","APOAPSIS":"548.507"},{"CENTER_NAME":"EARTH","LAUNCH_DATE":"2020-02-17","TLE_LINE2":"2 45233  53.0536 198.1752 0001691  64.8775 295.2389 15.06392146135956","ECCENTRICITY":"0.00016910","TIME_SYSTEM":"UTC","MEAN_MOTION_DDOT":"0.0000000000000","MEAN_ANOMALY":"295.2389","EPHEMERIS_TYPE":"0","APOAPSIS":"548.409","INCLINATION":"53.0536","FILE":"3523109","OBJECT_TYPE":"PAYLOAD","COUNTRY_CODE":"US","CLASSIFICATION_TYPE":"U","PERIAPSIS":"546.067","OBJECT_NAME":"STARLINK-1238","REF_FRAME":"TEME","ELEMENT_SET_NO":"999","RA_OF_ASC_NODE":"198.1752","SEMIMAJOR_AXIS":"6925.373","GP_ID":"208967106","NORAD_CAT_ID":"45233","MEAN_MOTION_DOT":"-0.00001235","EPOCH":"2022-07-27T09:18:32.344704","OBJECT_ID":"2020-012BH","SITE":"AFETR","DECAY_DATE":null,"REV_AT_EPOCH":"13595","BSTAR":"-0.00006405200000","MEAN_ELEMENT_THEORY":"SGP4","TLE_LINE1":"1 45233U 20012BH  22208.38787436 -.00001235  00000-0 -64052-4 0  9996","PERIOD":"95.593","RCS_SIZE":"LARGE","MEAN_MOTION":"15.06392146","ARG_OF_PERICENTER":"64.8775"},{"RCS_SIZE":"LARGE","ARG_OF_PERICENTER":"76.4075","MEAN_MOTION":"15.06391135","TLE_LINE1":"1 45234U 20012BJ  22208.75831451  .00002193  00000-0  16614-3 0  9997","PERIOD":"95.593","SITE":"AFETR","EPOCH":"2022-07-27T18:11:58.373664","MEAN_MOTION_DOT":"0.00002193","OBJECT_ID":"2020-012BJ","MEAN_ELEMENT_THEORY":"SGP4","BSTAR":"0.00016614000000","REV_AT_EPOCH":"13571","DECAY_DATE":null,"SEMIMAJOR_AXIS":"6925.376","RA_OF_ASC_NODE":"216.5197","ELEMENT_SET_NO":"999","REF_FRAME":"TEME","NORAD_CAT_ID":"45234","GP_ID":"208996382","PERIAPSIS":"546.087","COUNTRY_CODE":"US","OBJECT_TYPE":"PAYLOAD","CLASSIFICATION_TYPE":"U","OBJECT_NAME":"STARLINK-1243","INCLINATION":"53.0541","APOAPSIS":"548.394","FILE":"3523323","MEAN_MOTION_DDOT":"0.0000000000000","TIME_SYSTEM":"UTC","ECCENTRICITY":"0.00016660","TLE_LINE2":"2 45234  53.0541 216.5197 0001666  76.4075 283.7099 15.06391135135716","EPHEMERIS_TYPE":"0","MEAN_ANOMALY":"283.7099","LAUNCH_DATE":"2020-02-17","CENTER_NAME":"EARTH"},{"TLE_LINE1":"1 45235U 20012BK  22208.74355968 -.00000117  00000-0  11022-4 0  9995","PERIOD":"95.593","ARG_OF_PERICENTER":"47.9965","RCS_SIZE":"LARGE","MEAN_MOTION":"15.06393112","ELEMENT_SET_NO":"999","REF_FRAME":"TEME","RA_OF_ASC_NODE":"216.5654","SEMIMAJOR_AXIS":"6925.370","NORAD_CAT_ID":"45235","GP_ID":"208996641","OBJECT_ID":"2020-012BK","MEAN_MOTION_DOT":"-0.00000117","EPOCH":"2022-07-27T17:50:43.556352","SITE":"AFETR","DECAY_DATE":null,"REV_AT_EPOCH":"13576","BSTAR":"0.00001102200000","MEAN_ELEMENT_THEORY":"SGP4","APOAPSIS":"548.470","INCLINATION":"53.0536","FILE":"3523323","COUNTRY_CODE":"US","OBJECT_TYPE":"PAYLOAD","CLASSIFICATION_TYPE":"U","PERIAPSIS":"545.999","OBJECT_NAME":"STARLINK-1246","CENTER_NAME":"EARTH","LAUNCH_DATE":"2020-02-17","TLE_LINE2":"2 45235  53.0536 216.5654 0001784  47.9965 312.1176 15.06393112135766","ECCENTRICITY":"0.00017840","TIME_SYSTEM":"UTC","MEAN_MOTION_DDOT":"0.0000000000000","MEAN_ANOMALY":"312.1176","EPHEMERIS_TYPE":"0"},{"SEMIMAJOR_AXIS":"6925.356","RA_OF_ASC_NODE":"175.7665","REF_FRAME":"TEME","ELEMENT_SET_NO":"999","NORAD_CAT_ID":"45236","GP_ID":"208997381","SITE":"AFETR","MEAN_MOTION_DOT":"0.00003098","EPOCH":"2022-07-27T22:10:48.210240","OBJECT_ID":"2020-012BL","BSTAR":"0.00022683000000","MEAN_ELEMENT_THEORY":"SGP4","REV_AT_EPOCH":"13632","DECAY_DATE":null,"TLE_LINE1":"1 45236U 20012BL  22208.92416910  .00003098  00000-0  22683-3 0  9995","PERIOD":"95.592","RCS_SIZE":"LARGE","ARG_OF_PERICENTER":"51.5509","MEAN_MOTION":"15.06397521","LAUNCH_DATE":"2020-02-17","CENTER_NAME":"EARTH","MEAN_MOTION_DDOT":"0.0000000000000","TIME_SYSTEM":"UTC","ECCENTRICITY":"0.00021010","TLE_LINE2":"2 45236  53.0548 175.7665 0002101  51.5509 308.5669 15.06397521136324","EPHEMERIS_TYPE":"0","MEAN_ANOMALY":"308.5669","INCLINATION":"53.0548","APOAPSIS":"548.676","FILE":"3523323","PERIAPSIS":"545.766","COUNTRY_CODE":"US","OBJECT_TYPE":"PAYLOAD","CLASSIFICATION_TYPE":"U","OBJECT_NAME":"STARLINK-1247"},{"OBJECT_ID":"2020-012BM","MEAN_MOTION_DOT":"-0.00000603","EPOCH":"2022-07-27T14:44:57.177888","SITE":"AFETR","DECAY_DATE":null,"MEAN_ELEMENT_THEORY":"SGP4","BSTAR":"-0.00002158000000","REV_AT_EPOCH":"13628","REF_FRAME":"TEME","ELEMENT_SET_NO":"999","SEMIMAJOR_AXIS":"6925.380","RA_OF_ASC_NODE":"177.1571","NORAD_CAT_ID":"45237","GP_ID":"208996133","RCS_SIZE":"LARGE","MEAN_MOTION":"15.06389707","ARG_OF_PERICENTER":"65.4399","TLE_LINE1":"1 45237U 20012BM  22208.61455067 -.00000603  00000-0 -21580-4 0  9995","PERIOD":"95.593","TLE_LINE2":"2 45237  53.0536 177.1571 0001867  65.4399 294.6784 15.06389707136288","ECCENTRICITY":"0.00018670","MEAN_MOTION_DDOT":"0.0000000000000","TIME_SYSTEM":"UTC","MEAN_ANOMALY":"294.6784","EPHEMERIS_TYPE":"0","CENTER_NAME":"EARTH","LAUNCH_DATE":"2020-02-17","PERIAPSIS":"545.952","OBJECT_TYPE":"PAYLOAD","COUNTRY_CODE":"US","CLASSIFICATION_TYPE":"U","OBJECT_NAME":"STARLINK-1270","APOAPSIS":"548.538","INCLINATION":"53.0536","FILE":"3523323"}];
